{"fetched_at":"2026-07-21T07:06:28.574Z","source":"https://celestrak.org/NORAD/elements/gp.php?GROUP=oneweb&FORMAT=JSON","constellation":"oneweb","records":[{"OBJECT_NAME":"ONEWEB-0311","OBJECT_ID":"2021-075Y","EPOCH":"2026-07-20T21:17:49.476480","CLASSIFICATION_TYPE":"U","MEAN_MOTION":13.17648137,"ECCENTRICITY":0.00015829,"INCLINATION":87.9153,"RA_OF_ASC_NODE":359.159,"ARG_OF_PERICENTER":82.0375,"MEAN_ANOMALY":278.0936,"EPHEMERIS_TYPE":0,"NORAD_CAT_ID":49097,"ELEMENT_SET_NO":999,"REV_AT_EPOCH":23806,"BSTAR":0.000098071495,"MEAN_MOTION_DOT":5.1e-7,"MEAN_MOTION_DDOT":0},{"OBJECT_NAME":"ONEWEB-0312","OBJECT_ID":"2021-075Z","EPOCH":"2026-07-20T21:39:42.016896","CLASSIFICATION_TYPE":"U","MEAN_MOTION":13.17648984,"ECCENTRICITY":0.00019359,"INCLINATION":87.9152,"RA_OF_ASC_NODE":359.166,"ARG_OF_PERICENTER":84.7919,"MEAN_ANOMALY":275.3434,"EPHEMERIS_TYPE":0,"NORAD_CAT_ID":49098,"ELEMENT_SET_NO":999,"REV_AT_EPOCH":23804,"BSTAR":0.00012928206,"MEAN_MOTION_DOT":6.3e-7,"MEAN_MOTION_DDOT":0},{"OBJECT_NAME":"ONEWEB-0313","OBJECT_ID":"2021-075AA","EPOCH":"2026-07-20T21:46:46.489728","CLASSIFICATION_TYPE":"U","MEAN_MOTION":13.1764784,"ECCENTRICITY":0.00018173,"INCLINATION":87.915,"RA_OF_ASC_NODE":359.1699,"ARG_OF_PERICENTER":90.9075,"MEAN_ANOMALY":269.2265,"EPHEMERIS_TYPE":0,"NORAD_CAT_ID":49099,"ELEMENT_SET_NO":999,"REV_AT_EPOCH":23803,"BSTAR":-0.00030811848,"MEAN_MOTION_DOT":-0.00000107,"MEAN_MOTION_DDOT":0},{"OBJECT_NAME":"ONEWEB-0314","OBJECT_ID":"2021-075AB","EPOCH":"2026-07-20T20:58:22.102752","CLASSIFICATION_TYPE":"U","MEAN_MOTION":13.17647264,"ECCENTRICITY":0.00019853,"INCLINATION":87.9161,"RA_OF_ASC_NODE":359.1535,"ARG_OF_PERICENTER":82.622,"MEAN_ANOMALY":277.5137,"EPHEMERIS_TYPE":0,"NORAD_CAT_ID":49100,"ELEMENT_SET_NO":999,"REV_AT_EPOCH":23800,"BSTAR":-0.000015474346,"MEAN_MOTION_DOT":7e-8,"MEAN_MOTION_DDOT":0},{"OBJECT_NAME":"ONEWEB-0315","OBJECT_ID":"2021-075AC","EPOCH":"2026-07-20T21:43:41.226528","CLASSIFICATION_TYPE":"U","MEAN_MOTION":13.12443654,"ECCENTRICITY":0.00015236,"INCLINATION":87.8978,"RA_OF_ASC_NODE":343.9424,"ARG_OF_PERICENTER":89.7148,"MEAN_ANOMALY":270.4155,"EPHEMERIS_TYPE":0,"NORAD_CAT_ID":49101,"ELEMENT_SET_NO":999,"REV_AT_EPOCH":23959,"BSTAR":0.000060887286,"MEAN_MOTION_DOT":3.5e-7,"MEAN_MOTION_DDOT":0},{"OBJECT_NAME":"ONEWEB-0316","OBJECT_ID":"2021-075AD","EPOCH":"2026-07-20T20:21:17.248320","CLASSIFICATION_TYPE":"U","MEAN_MOTION":13.18686326,"ECCENTRICITY":0.00019786,"INCLINATION":87.9197,"RA_OF_ASC_NODE":328.7631,"ARG_OF_PERICENTER":99.2493,"MEAN_ANOMALY":260.8863,"EPHEMERIS_TYPE":0,"NORAD_CAT_ID":49102,"ELEMENT_SET_NO":999,"REV_AT_EPOCH":24164,"BSTAR":0.00011352711,"MEAN_MOTION_DOT":5.8e-7,"MEAN_MOTION_DDOT":0},{"OBJECT_NAME":"ONEWEB-0317","OBJECT_ID":"2021-075AE","EPOCH":"2026-07-20T21:48:34.146720","CLASSIFICATION_TYPE":"U","MEAN_MOTION":13.1244373,"ECCENTRICITY":0.00025424,"INCLINATION":87.8973,"RA_OF_ASC_NODE":343.965,"ARG_OF_PERICENTER":103.8822,"MEAN_ANOMALY":256.259,"EPHEMERIS_TYPE":0,"NORAD_CAT_ID":49103,"ELEMENT_SET_NO":999,"REV_AT_EPOCH":23961,"BSTAR":0.00037115003,"MEAN_MOTION_DOT":0.00000146,"MEAN_MOTION_DDOT":0},{"OBJECT_NAME":"ONEWEB-0318","OBJECT_ID":"2021-075AF","EPOCH":"2026-07-20T20:16:13.928160","CLASSIFICATION_TYPE":"U","MEAN_MOTION":13.18686736,"ECCENTRICITY":0.00017756,"INCLINATION":87.92,"RA_OF_ASC_NODE":328.7661,"ARG_OF_PERICENTER":94.8114,"MEAN_ANOMALY":265.3221,"EPHEMERIS_TYPE":0,"NORAD_CAT_ID":49104,"ELEMENT_SET_NO":999,"REV_AT_EPOCH":24160,"BSTAR":0.000053123916,"MEAN_MOTION_DOT":3.4e-7,"MEAN_MOTION_DDOT":0},{"OBJECT_NAME":"ONEWEB-0319","OBJECT_ID":"2021-075AG","EPOCH":"2026-07-20T21:20:15.228960","CLASSIFICATION_TYPE":"U","MEAN_MOTION":13.1764804,"ECCENTRICITY":0.00013978,"INCLINATION":87.9152,"RA_OF_ASC_NODE":359.1639,"ARG_OF_PERICENTER":85.0728,"MEAN_ANOMALY":275.0563,"EPHEMERIS_TYPE":0,"NORAD_CAT_ID":49105,"ELEMENT_SET_NO":999,"REV_AT_EPOCH":23804,"BSTAR":-0.000059952882,"MEAN_MOTION_DOT":-1e-7,"MEAN_MOTION_DDOT":0},{"OBJECT_NAME":"ONEWEB-0323","OBJECT_ID":"2021-075AH","EPOCH":"2026-07-20T21:21:43.434720","CLASSIFICATION_TYPE":"U","MEAN_MOTION":13.12443014,"ECCENTRICITY":0.00015101,"INCLINATION":87.8978,"RA_OF_ASC_NODE":343.9506,"ARG_OF_PERICENTER":82.1866,"MEAN_ANOMALY":277.9434,"EPHEMERIS_TYPE":0,"NORAD_CAT_ID":49106,"ELEMENT_SET_NO":999,"REV_AT_EPOCH":23897,"BSTAR":-0.0012201527,"MEAN_MOTION_DOT":-0.00000426,"MEAN_MOTION_DDOT":0},{"OBJECT_NAME":"ONEWEB-0329","OBJECT_ID":"2021-075AJ","EPOCH":"2026-07-20T21:32:23.469504","CLASSIFICATION_TYPE":"U","MEAN_MOTION":13.17647822,"ECCENTRICITY":0.00018929,"INCLINATION":87.9156,"RA_OF_ASC_NODE":359.1629,"ARG_OF_PERICENTER":88.6571,"MEAN_ANOMALY":271.4777,"EPHEMERIS_TYPE":0,"NORAD_CAT_ID":49107,"ELEMENT_SET_NO":999,"REV_AT_EPOCH":23802,"BSTAR":-0.00018861962,"MEAN_MOTION_DOT":-6e-7,"MEAN_MOTION_DDOT":0},{"OBJECT_NAME":"ONEWEB-0330","OBJECT_ID":"2021-075AK","EPOCH":"2026-07-20T21:37:26.948640","CLASSIFICATION_TYPE":"U","MEAN_MOTION":13.17646789,"ECCENTRICITY":0.00019602,"INCLINATION":87.9155,"RA_OF_ASC_NODE":359.1738,"ARG_OF_PERICENTER":89.1927,"MEAN_ANOMALY":270.9429,"EPHEMERIS_TYPE":0,"NORAD_CAT_ID":49108,"ELEMENT_SET_NO":999,"REV_AT_EPOCH":23806,"BSTAR":0.000035710942,"MEAN_MOTION_DOT":2.7e-7,"MEAN_MOTION_DDOT":0},{"OBJECT_NAME":"ONEWEB-0292","OBJECT_ID":"2021-083A","EPOCH":"2026-07-20T20:03:55.119168","CLASSIFICATION_TYPE":"U","MEAN_MOTION":13.13470142,"ECCENTRICITY":0.00018081,"INCLINATION":87.898,"RA_OF_ASC_NODE":313.5421,"ARG_OF_PERICENTER":99.0673,"MEAN_ANOMALY":261.066,"EPHEMERIS_TYPE":0,"NORAD_CAT_ID":49186,"ELEMENT_SET_NO":999,"REV_AT_EPOCH":23534,"BSTAR":0.00071097484,"MEAN_MOTION_DOT":0.00000272,"MEAN_MOTION_DDOT":0},{"OBJECT_NAME":"ONEWEB-0303","OBJECT_ID":"2021-083B","EPOCH":"2026-07-20T22:00:38.259072","CLASSIFICATION_TYPE":"U","MEAN_MOTION":13.18684287,"ECCENTRICITY":0.00017444,"INCLINATION":87.9199,"RA_OF_ASC_NODE":328.7499,"ARG_OF_PERICENTER":95.6883,"MEAN_ANOMALY":264.4448,"EPHEMERIS_TYPE":0,"NORAD_CAT_ID":49187,"ELEMENT_SET_NO":999,"REV_AT_EPOCH":23442,"BSTAR":0.00011239063,"MEAN_MOTION_DOT":5.7e-7,"MEAN_MOTION_DDOT":0},{"OBJECT_NAME":"ONEWEB-0306","OBJECT_ID":"2021-083C","EPOCH":"2026-07-20T21:46:04.748160","CLASSIFICATION_TYPE":"U","MEAN_MOTION":13.18685163,"ECCENTRICITY":0.00021775,"INCLINATION":87.9203,"RA_OF_ASC_NODE":328.7412,"ARG_OF_PERICENTER":100.2908,"MEAN_ANOMALY":259.847,"EPHEMERIS_TYPE":0,"NORAD_CAT_ID":49188,"ELEMENT_SET_NO":999,"REV_AT_EPOCH":23446,"BSTAR":-0.00024559406,"MEAN_MOTION_DOT":-8.4e-7,"MEAN_MOTION_DDOT":0},{"OBJECT_NAME":"ONEWEB-0307","OBJECT_ID":"2021-083D","EPOCH":"2026-07-20T19:55:23.024640","CLASSIFICATION_TYPE":"U","MEAN_MOTION":13.13469249,"ECCENTRICITY":0.00018897,"INCLINATION":87.898,"RA_OF_ASC_NODE":313.5412,"ARG_OF_PERICENTER":96.7544,"MEAN_ANOMALY":263.38,"EPHEMERIS_TYPE":0,"NORAD_CAT_ID":49189,"ELEMENT_SET_NO":999,"REV_AT_EPOCH":23534,"BSTAR":0.00066952565,"MEAN_MOTION_DOT":0.00000257,"MEAN_MOTION_DDOT":0}]}
